STARLINK-4402
1 53509U 22099AW  26092.83335647  .00051859  00000+0  30006-2 0  9990
2 53509  97.6036 214.0096 0001659  78.8594 176.0622 15.12051907  5829
